     2              NAVIGATION DATA                         RINEX VERSION / TYPE
CCRINEXN V1.6.0 UX  CDDIS               18-MAY-23 10:26     PGM / RUN BY / DATE 
IGS BROADCAST EPHEMERIS FILE                                COMMENT             
    0.1770D-07  0.2235D-07 -0.1192D-06 -0.1192D-06          ION ALPHA           
    0.1167D+06  0.1311D+06 -0.1311D+06 -0.2621D+06          ION BETA            
   -0.186264514923D-08-0.710542735760D-14   589824     2262 DELTA-UTC: A0,A1,T,W
    18                                                      LEAP SECONDS        
                                                            END OF HEADER       
15 23  5 18  0  0  0.0 0.404887832701D-04 0.352429196937D-11 0.000000000000D+00
    0.230000000000D+02 0.271875000000D+01 0.589810282251D-08-0.322392619804D+00
    0.359490513802D-06 0.148700606078D-01 0.411830842495D-05 0.515371094894D+04
    0.345600000000D+06-0.113621354103D-06-0.182824531124D+01 0.894069671631D-07
    0.931932989813D+00 0.282937500000D+03 0.119633738901D+01-0.903716214836D-08
   -0.785747015231D-10 0.100000000000D+01 0.226200000000D+04 0.000000000000D+00
    0.200000000000D+01 0.000000000000D+00-0.107102096081D-07 0.230000000000D+02
    0.338477000000D+06 0.400000000000D+01 0.000000000000D+00 0.000000000000D+00
16 23  5 18  0  0  0.0-0.500101130456D-03 0.329691829393D-11 0.000000000000D+00
    0.600000000000D+02 0.137125000000D+03 0.432410868791D-08 0.152883279818D+01
    0.704824924469D-05 0.133150743786D-01 0.747852027416D-05 0.515360359955D+04
    0.345600000000D+06-0.178813934326D-06 0.494495915866D+00 0.130385160446D-07
    0.965568368644D+00 0.240125000000D+03 0.788845488890D+00-0.822855703814D-08
    0.275368613065D-09 0.100000000000D+01 0.226200000000D+04 0.000000000000D+00
    0.200000000000D+01 0.000000000000D+00-0.102445483208D-07 0.600000000000D+02
    0.339193000000D+06 0.400000000000D+01 0.000000000000D+00 0.000000000000D+00
18 23  5 18  0  0  0.0-0.270585529506D-03-0.158024704433D-10 0.000000000000D+00
    0.120000000000D+03-0.114968750000D+03 0.407552690491D-08-0.139578497488D+01
   -0.618398189545D-05 0.318974012043D-02 0.102687627077D-04 0.515367944527D+04
    0.345600000000D+06 0.540167093277D-07 0.251988452244D+01-0.111758708954D-07
    0.973936897890D+00 0.186875000000D+03 0.312881851436D+01-0.784604110482D-08
   -0.614311302817D-10 0.100000000000D+01 0.226200000000D+04 0.000000000000D+00
    0.200000000000D+01 0.000000000000D+00-0.838190317154D-08 0.632000000000D+03
    0.338478000000D+06 0.400000000000D+01 0.000000000000D+00 0.000000000000D+00
20 23  5 18  0  0  0.0 0.433020293713D-03-0.204636307899D-11 0.000000000000D+00
    0.310000000000D+02 0.196875000000D+01 0.483162982821D-08-0.764808725193D+00
    0.173225998878D-06 0.417539465707D-02 0.109225511551D-04 0.515382196045D+04
    0.345600000000D+06 0.223517417908D-07-0.290300230556D+01-0.111758708954D-07
    0.948685802469D+00 0.163843750000D+03-0.288356288774D+01-0.806247869174D-08
    0.537879547699D-09 0.100000000000D+01 0.226200000000D+04 0.000000000000D+00
    0.200000000000D+01 0.000000000000D+00-0.838190317154D-08 0.310000000000D+02
    0.338479000000D+06 0.400000000000D+01 0.000000000000D+00 0.000000000000D+00
21 23  5 18  0  0  0.0 0.153761822730D-03-0.227373675443D-12 0.000000000000D+00
    0.410000000000D+02-0.133656250000D+03 0.457590489052D-08 0.587892117049D+00
   -0.726617872715D-05 0.246618727688D-01 0.818073749542D-05 0.515362587738D+04
    0.345600000000D+06 0.167638063431D-06 0.241539016827D+01-0.443309545517D-06
    0.961787886966D+00 0.227468750000D+03-0.760900962328D+00-0.845392356842D-08
   -0.160363822654D-09 0.100000000000D+01 0.226200000000D+04 0.000000000000D+00
    0.200000000000D+01 0.000000000000D+00-0.102445483208D-07 0.410000000000D+02
    0.338418000000D+06 0.400000000000D+01 0.000000000000D+00 0.000000000000D+00
22 23  5 18  0  0  0.0 0.483053736389D-03 0.636646291241D-11 0.000000000000D+00
    0.820000000000D+02-0.142812500000D+02 0.508199739988D-08 0.440933553487D+00
   -0.623986124992D-06 0.143518212717D-01 0.527128577232D-05 0.515361897659D+04
    0.345600000000D+06-0.193715095520D-06-0.160489291249D+01 0.242143869400D-07
    0.962131264561D+00 0.283187500000D+03-0.180468558172D+01-0.853214111221D-08
   -0.396802242692D-09 0.100000000000D+01 0.226200000000D+04 0.000000000000D+00
    0.200000000000D+01 0.630000000000D+02-0.838190317154D-08 0.820000000000D+02
    0.344178000000D+06 0.400000000000D+01 0.000000000000D+00 0.000000000000D+00
23 23  5 18  0  0  0.0 0.250679440796D-04 0.318323145621D-11 0.000000000000D+00
    0.176000000000D+03 0.222500000000D+02 0.429053586090D-08-0.244446401931D+01
    0.113993883133D-05 0.314942351542D-02 0.104643404484D-04 0.515365596771D+04
    0.345600000000D+06-0.614672899246D-07-0.276417264234D+01-0.372529029846D-07
    0.973963717567D+00 0.185281250000D+03-0.309661741845D+01-0.777318092704D-08
    0.588238788221D-09 0.100000000000D+01 0.226200000000D+04 0.000000000000D+00
    0.200000000000D+01 0.000000000000D+00-0.838190317154D-08 0.944000000000D+03
    0.338443000000D+06 0.400000000000D+01 0.000000000000D+00 0.000000000000D+00
24 23  5 18  0  0  0.0-0.192485749721D-03-0.137561073643D-10 0.000000000000D+00
    0.109000000000D+03-0.104687500000D+02 0.495199198463D-08-0.126265882841D+01
   -0.583007931709D-06 0.138689234154D-01 0.101961195469D-04 0.515365416527D+04
    0.345600000000D+06 0.378116965294D-06-0.728447106357D+00 0.197440385819D-06
    0.933967948360D+00 0.168187500000D+03 0.893440234343D+00-0.814248202420D-08
   -0.688600111530D-09 0.100000000000D+01 0.226200000000D+04 0.000000000000D+00
    0.200000000000D+01 0.000000000000D+00 0.279396772385D-08 0.109000000000D+03
    0.344418000000D+06 0.400000000000D+01 0.000000000000D+00 0.000000000000D+00
25 23  5 18  0  0  0.0 0.443550292403D-03 0.272848410532D-11 0.000000000000D+00
    0.860000000000D+02 0.135406250000D+03 0.429125017637D-08-0.310956770326D+01
    0.697560608387D-05 0.110966900829D-01 0.754930078983D-05 0.515374117660D+04
    0.345600000000D+06 0.633299350738D-07 0.394056081583D+00 0.745058059692D-08
    0.953618332134D+00 0.228812500000D+03 0.105178697878D+01-0.785639867911D-08
    0.347871633107D-09 0.100000000000D+01 0.226200000000D+04 0.000000000000D+00
    0.200000000000D+01 0.000000000000D+00 0.558793544769D-08 0.860000000000D+02
    0.338480000000D+06 0.400000000000D+01 0.000000000000D+00 0.000000000000D+00
26 23  5 18  0  0  0.0 0.240657478571D-03-0.454747350886D-12 0.000000000000D+00
    0.530000000000D+02 0.142093750000D+03 0.486555981295D-08 0.245833030442D+01
    0.727549195290D-05 0.788690370973D-02 0.864826142788D-05 0.515369631195D+04
    0.345600000000D+06-0.875443220139D-07 0.338576854719D+00-0.800937414169D-07
    0.934418791916D+00 0.197718750000D+03 0.464711642545D+00-0.829034532616D-08
    0.299655338990D-09 0.100000000000D+01 0.226200000000D+04 0.000000000000D+00
    0.200000000000D+01 0.000000000000D+00 0.698491930962D-08 0.530000000000D+02
    0.338481000000D+06 0.400000000000D+01 0.000000000000D+00 0.000000000000D+00
27 23  5 18  0  0  0.0 0.353124924004D-04-0.795807864051D-11 0.000000000000D+00
    0.980000000000D+02-0.134687500000D+02 0.475091218028D-08 0.654389288021D+00
   -0.827014446259D-06 0.115738507593D-01 0.964850187302D-06 0.515366282463D+04
    0.345600000000D+06-0.137835741043D-06 0.145001951447D+01 0.169500708580D-06
    0.967407619473D+00 0.365750000000D+03 0.736816443134D+00-0.866393231613D-08
   -0.700029159024D-10 0.100000000000D+01 0.226200000000D+04 0.000000000000D+00
    0.282842707634D+01 0.000000000000D+00 0.186264514923D-08 0.980000000000D+02
    0.342733000000D+06 0.400000000000D+01 0.000000000000D+00 0.000000000000D+00
28 23  5 18  0  0  0.0 0.784317962825D-04 0.318323145621D-11 0.000000000000D+00
    0.183000000000D+03 0.287500000000D+01 0.425196282560D-08 0.252689529254D+01
    0.171363353729D-06 0.726160127670D-03 0.113621354103D-04 0.515368337631D+04
    0.345600000000D+06 0.335276126862D-07-0.675405633516D+00 0.447034835815D-07
    0.961590237956D+00 0.161062500000D+03 0.172006303861D+01-0.778711007868D-08
   -0.641098132882D-09 0.100000000000D+01 0.226200000000D+04 0.000000000000D+00
    0.200000000000D+01 0.000000000000D+00-0.977888703346D-08 0.439000000000D+03
    0.338418000000D+06 0.400000000000D+01 0.000000000000D+00 0.000000000000D+00
29 23  5 18  0  0  0.0-0.599788501859D-03-0.136424205266D-11 0.000000000000D+00
    0.630000000000D+02-0.395625000000D+02 0.446125725784D-08 0.740344796732D+00
   -0.199116766453D-05 0.252369372174D-02 0.141933560371D-05 0.515376530838D+04
    0.345600000000D+06 0.186264514923D-08 0.152976073005D+01-0.707805156708D-07
    0.976316180539D+00 0.358718750000D+03 0.238509856228D+01-0.837820612877D-08
    0.535736601294D-11 0.100000000000D+01 0.226200000000D+04 0.000000000000D+00
    0.200000000000D+01 0.000000000000D+00-0.102445483208D-07 0.630000000000D+02
    0.338482000000D+06 0.400000000000D+01 0.000000000000D+00 0.000000000000D+00
30 23  5 18  0  0  0.0-0.516591127962D-03 0.216004991671D-11 0.000000000000D+00
    0.570000000000D+02-0.142500000000D+02 0.478484216503D-08-0.231232689909D+01
   -0.834465026855D-06 0.649000448175D-02 0.112093985081D-04 0.515359923935D+04
    0.345600000000D+06-0.596046447754D-07-0.631696173618D+00-0.409781932831D-07
    0.935603637064D+00 0.149125000000D+03-0.258882263805D+01-0.798854704076D-08
   -0.526807657939D-09 0.100000000000D+01 0.226200000000D+04 0.000000000000D+00
    0.200000000000D+01 0.000000000000D+00 0.372529029846D-08 0.570000000000D+02
    0.338418000000D+06 0.400000000000D+01 0.000000000000D+00 0.000000000000D+00
